{
  "type": "FeatureCollection",
  "features": [
    {
      "type": "Feature",
      "properties": {
        "norad_id": 41019,
        "name": "GPS BIIF-11 (PRN 10)",
        "group": "gnss",
        "lat": -25.30765867496579,
        "lon": 20.29249457984876,
        "alt_km": 20231.263053795286,
        "timestamp": "2025-12-05T18:53:13.525205+00:00",
        "meta_object_name": "GPS BIIF-11 (PRN 10)",
        "meta_object_id": "2015-062A",
        "meta_epoch": "2025-12-03T20:03:13.853664",
        "meta_mean_motion": 2.0056693,
        "meta_eccentricity": 0.0110571,
        "meta_inclination": 56.8259,
        "meta_ra_of_asc_node": 38.3468,
        "meta_arg_of_pericenter": 229.69,
        "meta_mean_anomaly": 129.3913,
        "meta_ephemeris_type": 0,
        "meta_classification_type": "U",
        "meta_norad_cat_id": 41019,
        "meta_element_set_no": 999,
        "meta_rev_at_epoch": 7391,
        "meta_bstar": 0,
        "meta_mean_motion_dot": -6.5e-07,
        "meta_mean_motion_ddot": 0,
        "tle_line1": "1 41019U 15062A   25337.83557701 -.00000065  00000+0  00000+0 0  9995",
        "tle_line2": "2 41019  56.8259  38.3468 0110571 229.6900 129.3913  2.00566930 73916"
      },
      "geometry": {
        "type": "Point",
        "coordinates": [
          20.29249457984876,
          -25.30765867496579
        ]
      }
    },
    {
      "type": "Feature",
      "properties": {
        "norad_id": 41028,
        "name": "GSAT-15 (GAGAN/PRN 139)",
        "group": "gnss",
        "lat": 0.021385170964259206,
        "lon": 91.611544596881,
        "alt_km": 35796.520696043626,
        "timestamp": "2025-12-05T18:53:13.525216+00:00",
        "meta_object_name": "GSAT-15 (GAGAN/PRN 139)",
        "meta_object_id": "2015-065A",
        "meta_epoch": "2025-12-05T03:18:38.681280",
        "meta_mean_motion": 1.00271518,
        "meta_eccentricity": 0.00030143,
        "meta_inclination": 0.0368,
        "meta_ra_of_asc_node": 94.7348,
        "meta_arg_of_pericenter": 140.4998,
        "meta_mean_anomaly": 342.1285,
        "meta_ephemeris_type": 0,
        "meta_classification_type": "U",
        "meta_norad_cat_id": 41028,
        "meta_element_set_no": 999,
        "meta_rev_at_epoch": 3685,
        "meta_bstar": 0,
        "meta_mean_motion_dot": -2.46e-06,
        "meta_mean_motion_ddot": 0,
        "tle_line1": "1 41028U 15065A   25339.13794770 -.00000246  00000+0  00000+0 0  9993",
        "tle_line2": "2 41028   0.0368  94.7348 0003014 140.4998 342.1285  1.00271518 36854"
      },
      "geometry": {
        "type": "Point",
        "coordinates": [
          91.611544596881,
          0.021385170964259206
        ]
      }
    },
    {
      "type": "Feature",
      "properties": {
        "norad_id": 41174,
        "name": "GSAT0209 (GALILEO 12)",
        "group": "gnss",
        "lat": -13.930354391646263,
        "lon": -63.70846333851382,
        "alt_km": 23230.753467735914,
        "timestamp": "2025-12-05T18:53:13.525230+00:00",
        "meta_object_name": "GSAT0209 (GALILEO 12)",
        "meta_object_id": "2015-079A",
        "meta_epoch": "2025-12-01T22:43:10.411392",
        "meta_mean_motion": 1.70474306,
        "meta_eccentricity": 0.0002352,
        "meta_inclination": 55.7062,
        "meta_ra_of_asc_node": 106.6773,
        "meta_arg_of_pericenter": 357.4206,
        "meta_mean_anomaly": 2.5431,
        "meta_ephemeris_type": 0,
        "meta_classification_type": "U",
        "meta_norad_cat_id": 41174,
        "meta_element_set_no": 999,
        "meta_rev_at_epoch": 6141,
        "meta_bstar": 0,
        "meta_mean_motion_dot": 3.5e-07,
        "meta_mean_motion_ddot": 0,
        "tle_line1": "1 41174U 15079A   25335.94664828  .00000035  00000+0  00000+0 0  9990",
        "tle_line2": "2 41174  55.7062 106.6773 0002352 357.4206   2.5431  1.70474306 61412"
      },
      "geometry": {
        "type": "Point",
        "coordinates": [
          -63.70846333851382,
          -13.930354391646263
        ]
      }
    },
    {
      "type": "Feature",
      "properties": {
        "norad_id": 41175,
        "name": "GSAT0208 (GALILEO 11)",
        "group": "gnss",
        "lat": 46.74361682773198,
        "lon": 152.99426631234618,
        "alt_km": 23213.146860654662,
        "timestamp": "2025-12-05T18:53:13.525287+00:00",
        "meta_object_name": "GSAT0208 (GALILEO 11)",
        "meta_object_id": "2015-079B",
        "meta_epoch": "2025-12-03T08:09:32.138784",
        "meta_mean_motion": 1.70474152,
        "meta_eccentricity": 0.00019072,
        "meta_inclination": 55.7055,
        "meta_ra_of_asc_node": 106.6362,
        "meta_arg_of_pericenter": 9.6551,
        "meta_mean_anomaly": 350.3047,
        "meta_ephemeris_type": 0,
        "meta_classification_type": "U",
        "meta_norad_cat_id": 41175,
        "meta_element_set_no": 999,
        "meta_rev_at_epoch": 6185,
        "meta_bstar": 0,
        "meta_mean_motion_dot": 2.2e-07,
        "meta_mean_motion_ddot": 0,
        "tle_line1": "1 41175U 15079B   25337.33995531  .00000022  00000+0  00000+0 0  9990",
        "tle_line2": "2 41175  55.7055 106.6362 0001907   9.6551 350.3047  1.70474152 61857"
      },
      "geometry": {
        "type": "Point",
        "coordinates": [
          152.99426631234618,
          46.74361682773198
        ]
      }
    },
    {
      "type": "Feature",
      "properties": {
        "norad_id": 41241,
        "name": "IRNSS-1E",
        "group": "gnss",
        "lat": 23.444548937067854,
        "lon": 104.758828091068,
        "alt_km": 35852.565029514226,
        "timestamp": "2025-12-05T18:53:13.525313+00:00",
        "meta_object_name": "IRNSS-1E",
        "meta_object_id": "2016-003A",
        "meta_epoch": "2025-12-04T15:58:06.723840",
        "meta_mean_motion": 1.00277274,
        "meta_eccentricity": 0.00219087,
        "meta_inclination": 32.808,
        "meta_ra_of_asc_node": 62.5711,
        "meta_arg_of_pericenter": 186.7254,
        "meta_mean_anomaly": 175.6944,
        "meta_ephemeris_type": 0,
        "meta_classification_type": "U",
        "meta_norad_cat_id": 41241,
        "meta_element_set_no": 999,
        "meta_rev_at_epoch": 3613,
        "meta_bstar": 0,
        "meta_mean_motion_dot": -3.12e-06,
        "meta_mean_motion_ddot": 0,
        "tle_line1": "1 41241U 16003A   25338.66535560 -.00000312  00000+0  00000+0 0  9994",
        "tle_line2": "2 41241  32.8080  62.5711 0021908 186.7254 175.6944  1.00277274 36139"
      },
      "geometry": {
        "type": "Point",
        "coordinates": [
          104.758828091068,
          23.444548937067854
        ]
      }
    },
    {
      "type": "Feature",
      "properties": {
        "norad_id": 41328,
        "name": "GPS BIIF-12 (PRN 32)",
        "group": "gnss",
        "lat": -55.40326055728928,
        "lon": 5.538602790087776,
        "alt_km": 19968.795625063172,
        "timestamp": "2025-12-05T18:53:13.525338+00:00",
        "meta_object_name": "GPS BIIF-12 (PRN 32)",
        "meta_object_id": "2016-007A",
        "meta_epoch": "2025-12-03T22:01:44.177088",
        "meta_mean_motion": 2.00561076,
        "meta_eccentricity": 0.0091739,
        "meta_inclination": 55.4011,
        "meta_ra_of_asc_node": 97.2072,
        "meta_arg_of_pericenter": 243.359,
        "meta_mean_anomaly": 115.6713,
        "meta_ephemeris_type": 0,
        "meta_classification_type": "U",
        "meta_norad_cat_id": 41328,
        "meta_element_set_no": 999,
        "meta_rev_at_epoch": 7192,
        "meta_bstar": 0,
        "meta_mean_motion_dot": -7e-08,
        "meta_mean_motion_ddot": 0,
        "tle_line1": "1 41328U 16007A   25337.91787242 -.00000007  00000+0  00000+0 0  9998",
        "tle_line2": "2 41328  55.4011  97.2072 0091739 243.3590 115.6713  2.00561076 71928"
      },
      "geometry": {
        "type": "Point",
        "coordinates": [
          5.538602790087776,
          -55.40326055728928
        ]
      }
    },
    {
      "type": "Feature",
      "properties": {
        "norad_id": 41330,
        "name": "COSMOS 2514 (751)",
        "group": "gnss",
        "lat": -48.00640988811029,
        "lon": 170.6324424169445,
        "alt_km": 19104.98209126417,
        "timestamp": "2025-12-05T18:53:13.525358+00:00",
        "meta_object_name": "COSMOS 2514 (751)",
        "meta_object_id": "2016-008A",
        "meta_epoch": "2025-12-05T00:16:21.718272",
        "meta_mean_motion": 2.13102448,
        "meta_eccentricity": 0.00123991,
        "meta_inclination": 65.1382,
        "meta_ra_of_asc_node": 319.6687,
        "meta_arg_of_pericenter": 219.9384,
        "meta_mean_anomaly": 139.9663,
        "meta_ephemeris_type": 0,
        "meta_classification_type": "U",
        "meta_norad_cat_id": 41330,
        "meta_element_set_no": 999,
        "meta_rev_at_epoch": 7648,
        "meta_bstar": 0,
        "meta_mean_motion_dot": -4.7e-07,
        "meta_mean_motion_ddot": 0,
        "tle_line1": "1 41330U 16008A   25339.01136248 -.00000047  00000+0  00000+0 0  9993",
        "tle_line2": "2 41330  65.1382 319.6687 0012399 219.9384 139.9663  2.13102448 76485"
      },
      "geometry": {
        "type": "Point",
        "coordinates": [
          170.6324424169445,
          -48.00640988811029
        ]
      }
    }
  ]
}